OBJECT_NAME,OBJECT_ID,EPOCH,MEAN_MOTION,ECCENTRICITY,INCLINATION,RA_OF_ASC_NODE,ARG_OF_PERICENTER,MEAN_ANOMALY,EPHEMERIS_TYPE,CLASSIFICATION_TYPE,NORAD_CAT_ID,ELEMENT_SET_NO,REV_AT_EPOCH,BSTAR,MEAN_MOTION_DOT,MEAN_MOTION_DDOT
GSAT-17,2017-040B,2026-06-05T17:16:38.691264,1.00270917,.0001648,0.0974,88.6837,215.4019,302.7340,0,U,42815,999,3267,0,-.245E-5,0
INTELSAT 35E (IS-35E),2017-041A,2026-06-05T16:46:34.629024,1.00273675,.0001944,0.0143,22.8830,51.0111,37.3928,0,U,42818,999,3270,0,-.225E-5,0
COSMOS 2520,2017-046A,2026-06-05T12:01:14.823264,1.00266193,.0001425,0.0454,87.4825,56.2363,335.5517,0,U,42907,999,3228,0,.15E-5,0
TDRS 13,2017-047A,2026-06-05T16:53:11.496192,1.00272420,.0014672,3.4486,2.4370,104.4490,29.1039,0,U,42915,999,3223,0,-.88E-6,0
QZS-3 (MICHIBIKI-3),2017-048A,2026-06-05T17:32:31.608960,1.00271458,.0002828,0.0593,191.3407,252.7659,200.2227,0,U,42917,999,3214,0,-.335E-5,0
AMAZONAS 5,2017-053A,2026-06-05T13:13:39.624384,1.00272708,.0002817,0.0337,320.1790,69.4832,1.7513,0,U,42934,999,3192,0,-.27E-5,0
ASIASAT 9,2017-057A,2026-06-05T17:31:09.242112,1.00270324,.0002412,0.0040,352.3054,76.0414,210.6990,0,U,42942,999,3174,0,-.347E-5,0
INTELSAT 37E (IS-37E),2017-059A,2026-06-05T16:51:11.687040,1.00271871,.0002592,0.0152,17.4157,73.6329,37.8961,0,U,42950,999,3195,0,-.128E-5,0
BSAT-4A,2017-059B,2026-06-05T16:00:33.399072,1.00270209,.0004464,0.0345,355.2017,71.8297,177.0389,0,U,42951,999,3168,0,-.338E-5,0
QZS-4 (MICHIBIKI-4),2017-062A,2026-06-04T08:56:23.188704,1.00255482,.074483,40.1160,343.6465,271.5298,269.7386,0,U,42965,999,3167,0,-.321E-5,0
SES-11 (ECHOSTAR 105),2017-063A,2026-06-05T16:26:23.555040,1.00271332,.0002861,0.0169,328.8010,116.4694,310.4980,0,U,42967,999,3160,0,-.77E-6,0
KOREASAT 5A,2017-067A,2026-06-05T17:31:39.972864,1.00269653,.0001002,0.0187,299.7549,135.6692,194.7971,0,U,42984,999,3141,0,-.345E-5,0
ALCOMSAT 1,2017-078A,2026-06-05T16:49:19.367040,1.00273640,.0002543,0.0241,55.3119,15.8056,50.5327,0,U,43039,999,3118,0,-.173E-5,0
SBIRS GEO-3 (USA 282),2018-009A,2026-06-05T16:10:55.035840,1.00272674,.0002294,2.1759,11.5340,60.1564,265.7499,0,U,43162,999,3072,0,.14E-5,0
AL YAH 3,2018-012A,2026-06-05T16:50:34.247328,1.00272204,.000428,1.5216,83.2477,352.1641,51.2701,0,U,43174,999,3073,0,-.143E-5,0
SES-14,2018-012B,2026-06-05T09:52:12.527040,1.00271475,.0001238,0.0197,23.9324,54.9625,275.5052,0,U,43175,999,690,0,-.266E-5,0
GOES 17,2018-022A,2026-06-05T14:48:10.006272,1.00271340,.0000728,0.9078,85.9257,9.2393,291.4339,0,U,43226,999,3030,0,-.17E-5,0
HISPASAT 30W-6,2018-023A,2026-06-05T16:47:49.510176,1.00271555,.0006363,0.0439,39.0168,26.2252,50.8495,0,U,43228,999,3029,0,-.203E-5,0
SUPERBIRD-B3,2018-033A,2026-06-05T15:59:56.088096,1.00271333,.0001407,0.0272,286.2285,165.0322,204.8346,0,U,43271,999,2994,0,-.8E-6,0
HYLAS 4,2018-033B,2026-06-05T16:46:49.604736,1.00270002,.0001447,0.0245,66.0576,12.8074,33.5161,0,U,43272,999,2995,0,-.221E-5,0
IRNSS-1I,2018-035A,2026-06-03T20:42:40.244256,1.00268957,.0018238,28.7232,74.4103,238.1364,305.5602,0,U,43286,999,2994,0,.83E-6,0
USA 283,2018-036A,2026-06-04T10:46:37.311744,1.00268935,.0000547,0.0148,344.8211,104.8728,98.9470,0,U,43339,999,2516,0,0,0
COSMOS 2526,2018-037A,2026-06-05T17:32:54.073824,1.00273644,.0000882,0.0115,0.4912,261.8164,23.1299,0,U,43432,999,2984,0,-.332E-5,0
APSTAR-6C,2018-041A,2026-06-05T17:34:31.418976,1.00274069,.0001293,0.0305,318.3874,42.5103,290.8782,0,U,43450,999,2969,0,-.305E-5,0
BANGABANDHUSAT-1,2018-044A,2026-06-05T16:19:39.376704,1.00274100,.0002056,0.0331,87.6216,356.2534,174.2432,0,U,43463,999,2959,0,-.35E-5,0
SES-12,2018-049A,2026-06-05T17:47:48.376032,1.00269287,.0000735,0.0269,41.5778,253.7732,320.7800,0,U,43488,999,2930,0,-.257E-5,0
FENGYUN 2H,2018-050A,2026-06-05T17:14:47.444352,1.00271829,.000144,3.0016,79.2061,126.7370,26.3583,0,U,43491,999,2932,0,-.118E-5,0
BEIDOU-2 IGSO-7,2018-057A,2026-06-05T15:32:32.126784,1.00255133,.0104632,55.1930,163.1583,237.9113,196.9569,0,U,43539,999,2901,0,.4E-7,0
TELSTAR 19V,2018-059A,2026-06-05T13:13:02.182944,1.00270559,.0002839,0.0090,96.8550,11.7960,280.5842,0,U,43562,999,2902,0,-.267E-5,0
TELKOM 4 (MERAH PUTIH),2018-064A,2026-06-05T16:05:36.836736,1.00273353,.000152,0.0176,297.2346,159.2073,147.0629,0,U,43587,999,2876,0,-.332E-5,0
TELSTAR 18V,2018-069A,2026-06-05T17:35:46.299264,1.00270545,.0001992,0.0173,290.4944,142.7421,222.8818,0,U,43611,999,2852,0,-.281E-5,0
AZERSPACE 2 (IS-38),2018-074A,2026-06-05T15:26:36.322944,1.00271669,.0001545,0.0187,327.1996,107.5966,96.0387,0,U,43632,999,2833,0,.149E-5,0
