GSAT-17                 
1 42815U 17040B   26156.71989226 -.00000245  00000+0  00000+0 0  9996
2 42815   0.0974  88.6837 0001648 215.4019 302.7340  1.00270917 32677
INTELSAT 35E (IS-35E)   
1 42818U 17041A   26156.69901191 -.00000225  00000+0  00000+0 0  9990
2 42818   0.0143  22.8830 0001944  51.0111  37.3928  1.00273675 32708
COSMOS 2520             
1 42907U 17046A   26156.50086601  .00000150  00000+0  00000+0 0  9990
2 42907   0.0454  87.4825 0001425  56.2363 335.5517  1.00266193 32280
TDRS 13                 
1 42915U 17047A   26156.70360528 -.00000088  00000+0  00000+0 0  9996
2 42915   3.4486   2.4370 0014672 104.4490  29.1039  1.00272420 32238
QZS-3 (MICHIBIKI-3)     
1 42917U 17048A   26156.73092140 -.00000335  00000+0  00000+0 0  9999
2 42917   0.0593 191.3407 0002828 252.7659 200.2227  1.00271458 32146
AMAZONAS 5              
1 42934U 17053A   26156.55115306 -.00000270  00000+0  00000+0 0  9992
2 42934   0.0337 320.1790 0002817  69.4832   1.7513  1.00272708 31928
ASIASAT 9               
1 42942U 17057A   26156.72996808 -.00000347  00000+0  00000+0 0  9993
2 42942   0.0040 352.3054 0002412  76.0414 210.6990  1.00270324 31741
INTELSAT 37E (IS-37E)   
1 42950U 17059A   26156.70221860 -.00000128  00000+0  00000+0 0  9998
2 42950   0.0152  17.4157 0002592  73.6329  37.8961  1.00271871 31952
BSAT-4A                 
1 42951U 17059B   26156.66705323 -.00000338  00000+0  00000+0 0  9998
2 42951   0.0345 355.2017 0004464  71.8297 177.0389  1.00270209 31684
QZS-4 (MICHIBIKI-4)     
1 42965U 17062A   26155.37249061 -.00000321  00000+0  00000+0 0  9998
2 42965  40.1160 343.6465 0744830 271.5298 269.7386  1.00255482 31676
SES-11 (ECHOSTAR 105)   
1 42967U 17063A   26156.68499485 -.00000077  00000+0  00000+0 0  9991
2 42967   0.0169 328.8010 0002861 116.4694 310.4980  1.00271332 31600
KOREASAT 5A             
1 42984U 17067A   26156.73032376 -.00000345  00000+0  00000+0 0  9990
2 42984   0.0187 299.7549 0001002 135.6692 194.7971  1.00269653 31414
ALCOMSAT 1              
1 43039U 17078A   26156.70091860 -.00000173  00000+0  00000+0 0  9993
2 43039   0.0241  55.3119 0002543  15.8056  50.5327  1.00273640 31189
SBIRS GEO-3 (USA 282)   
1 43162U 18009A   26156.67424810  .00000140  00000+0  00000+0 0  9999
2 43162   2.1759  11.5340 0002294  60.1564 265.7499  1.00272674 30728
AL YAH 3                
1 43174U 18012A   26156.70178527 -.00000143  00000+0  00000+0 0  9995
2 43174   1.5216  83.2477 0004280 352.1641  51.2701  1.00272204 30730
SES-14                  
1 43175U 18012B   26156.41125610 -.00000266  00000+0  00000+0 0  9995
2 43175   0.0197  23.9324 0001238  54.9625 275.5052  1.00271475  6905
GOES 17                 
1 43226U 18022A   26156.61678248 -.00000170  00000+0  00000+0 0  9999
2 43226   0.9078  85.9257 0000728   9.2393 291.4339  1.00271340 30307
HISPASAT 30W-6          
1 43228U 18023A   26156.69987859 -.00000203  00000+0  00000+0 0  9998
2 43228   0.0439  39.0168 0006363  26.2252  50.8495  1.00271555 30292
SUPERBIRD-B3            
1 43271U 18033A   26156.66662139 -.00000080  00000+0  00000+0 0  9998
2 43271   0.0272 286.2285 0001407 165.0322 204.8346  1.00271333 29945
HYLAS 4                 
1 43272U 18033B   26156.69918524 -.00000221  00000+0  00000+0 0  9991
2 43272   0.0245  66.0576 0001447  12.8074  33.5161  1.00270002 29955
IRNSS-1I                
1 43286U 18035A   26154.86296579  .00000083  00000+0  00000+0 0  9999
2 43286  28.7232  74.4103 0018238 238.1364 305.5602  1.00268957 29940
USA 283                 
1 43339U 18036A   26155.44904296  .00000000  00000+0  00000+0 0  9995
2 43339   0.0148 344.8211 0000547 104.8728  98.9470  1.00268935 25161
COSMOS 2526             
1 43432U 18037A   26156.73118141 -.00000332  00000+0  00000+0 0  9998
2 43432   0.0115   0.4912 0000882 261.8164  23.1299  1.00273644 29843
APSTAR-6C               
1 43450U 18041A   26156.73230809 -.00000305  00000+0  00000+0 0  9999
2 43450   0.0305 318.3874 0001293  42.5103 290.8782  1.00274069 29691
BANGABANDHUSAT-1        
1 43463U 18044A   26156.68031686 -.00000350  00000+0  00000+0 0  9992
2 43463   0.0331  87.6216 0002056 356.2534 174.2432  1.00274100 29593
SES-12                  
1 43488U 18049A   26156.74153213 -.00000257  00000+0  00000+0 0  9998
2 43488   0.0269  41.5778 0000735 253.7732 320.7800  1.00269287 29301
FENGYUN 2H              
1 43491U 18050A   26156.71860468 -.00000118  00000+0  00000+0 0  9994
2 43491   3.0016  79.2061 0001440 126.7370  26.3583  1.00271829 29326
BEIDOU-2 IGSO-7         
1 43539U 18057A   26156.64759406  .00000004  00000+0  00000+0 0  9998
2 43539  55.1930 163.1583 0104632 237.9113 196.9569  1.00255133 29015
TELSTAR 19V             
1 43562U 18059A   26156.55071971 -.00000267  00000+0  00000+0 0  9992
2 43562   0.0090  96.8550 0002839  11.7960 280.5842  1.00270559 29021
TELKOM 4 (MERAH PUTIH)  
1 43587U 18064A   26156.67056524 -.00000332  00000+0  00000+0 0  9998
2 43587   0.0176 297.2346 0001520 159.2073 147.0629  1.00273353 28767
TELSTAR 18V             
1 43611U 18069A   26156.73317476 -.00000281  00000+0  00000+0 0  9997
2 43611   0.0173 290.4944 0001992 142.7421 222.8818  1.00270545 28524
AZERSPACE 2 (IS-38)     
1 43632U 18074A   26156.64347596  .00000149  00000+0  00000+0 0  9994
2 43632   0.0187 327.1996 0001545 107.5966  96.0387  1.00271669 28333
